{
  "type": "FeatureCollection",
  "features": [
    {
      "type": "Feature",
      "properties": {
        "norad_id": 47059,
        "name": "COSMOS 2251 DEB",
        "group": "cosmos-2251-debris",
        "lat": 29.493341122131802,
        "lon": -117.55617864187253,
        "alt_km": 517.1098659385825,
        "timestamp": "2025-12-13T20:38:51.406659+00:00",
        "meta_object_name": "COSMOS 2251 DEB",
        "meta_object_id": "1993-036BXP",
        "meta_epoch": "2025-12-12T01:57:33.172416",
        "meta_mean_motion": 15.12724951,
        "meta_eccentricity": 0.00125007,
        "meta_inclination": 73.9813,
        "meta_ra_of_asc_node": 236.7898,
        "meta_arg_of_pericenter": 50.1346,
        "meta_mean_anomaly": 17.873,
        "meta_ephemeris_type": 0,
        "meta_classification_type": "U",
        "meta_norad_cat_id": 47059,
        "meta_element_set_no": 999,
        "meta_rev_at_epoch": 8295,
        "meta_bstar": 0.0036258701,
        "meta_mean_motion_dot": 0.00064189,
        "meta_mean_motion_ddot": 0,
        "tle_line1": "1 47059U 93036BXP 25346.08163394  .00064189  00000+0  36259-2 0  9994",
        "tle_line2": "2 47059  73.9813 236.7898 0012500  50.1346  17.8730 15.12724951 82955"
      },
      "geometry": {
        "type": "Point",
        "coordinates": [
          -117.55617864187253,
          29.493341122131802
        ]
      }
    },
    {
      "type": "Feature",
      "properties": {
        "norad_id": 47062,
        "name": "COSMOS 2251 DEB",
        "group": "cosmos-2251-debris",
        "lat": -40.54561786656591,
        "lon": -89.54338685805452,
        "alt_km": 774.571590669645,
        "timestamp": "2025-12-13T20:38:51.406669+00:00",
        "meta_object_name": "COSMOS 2251 DEB",
        "meta_object_id": "1993-036BXS",
        "meta_epoch": "2025-12-12T12:09:44.037216",
        "meta_mean_motion": 13.7194537,
        "meta_eccentricity": 0.03234078,
        "meta_inclination": 74.0838,
        "meta_ra_of_asc_node": 78.5596,
        "meta_arg_of_pericenter": 204.4264,
        "meta_mean_anomaly": 174.0421,
        "meta_ephemeris_type": 0,
        "meta_classification_type": "U",
        "meta_norad_cat_id": 47062,
        "meta_element_set_no": 999,
        "meta_rev_at_epoch": 55599,
        "meta_bstar": 0.0024049368,
        "meta_mean_motion_dot": 3.146e-05,
        "meta_mean_motion_ddot": 0,
        "tle_line1": "1 47062U 93036BXS 25346.50675969  .00003146  00000+0  24049-2 0  9991",
        "tle_line2": "2 47062  74.0838  78.5596 0323407 204.4264 174.0421 13.71945370555994"
      },
      "geometry": {
        "type": "Point",
        "coordinates": [
          -89.54338685805452,
          -40.54561786656591
        ]
      }
    },
    {
      "type": "Feature",
      "properties": {
        "norad_id": 47068,
        "name": "COSMOS 2251 DEB",
        "group": "cosmos-2251-debris",
        "lat": -49.82064332456076,
        "lon": -178.4776072263141,
        "alt_km": 709.5983486247451,
        "timestamp": "2025-12-13T20:38:51.406679+00:00",
        "meta_object_name": "COSMOS 2251 DEB",
        "meta_object_id": "1993-036BXY",
        "meta_epoch": "2025-12-12T06:53:13.112448",
        "meta_mean_motion": 14.53147025,
        "meta_eccentricity": 0.00183376,
        "meta_inclination": 74.024,
        "meta_ra_of_asc_node": 204.3241,
        "meta_arg_of_pericenter": 291.4088,
        "meta_mean_anomaly": 68.5117,
        "meta_ephemeris_type": 0,
        "meta_classification_type": "U",
        "meta_norad_cat_id": 47068,
        "meta_element_set_no": 999,
        "meta_rev_at_epoch": 61750,
        "meta_bstar": 0.0013365737,
        "meta_mean_motion_dot": 5.521e-05,
        "meta_mean_motion_ddot": 0,
        "tle_line1": "1 47068U 93036BXY 25346.28695732  .00005521  00000+0  13366-2 0  9991",
        "tle_line2": "2 47068  74.0240 204.3241 0018337 291.4088  68.5117 14.53147025617503"
      },
      "geometry": {
        "type": "Point",
        "coordinates": [
          -178.4776072263141,
          -49.82064332456076
        ]
      }
    },
    {
      "type": "Feature",
      "properties": {
        "norad_id": 47073,
        "name": "COSMOS 2251 DEB",
        "group": "cosmos-2251-debris",
        "lat": -72.44293086777861,
        "lon": 135.48006038683246,
        "alt_km": 793.0912835599884,
        "timestamp": "2025-12-13T20:38:51.406689+00:00",
        "meta_object_name": "COSMOS 2251 DEB",
        "meta_object_id": "1993-036BYD",
        "meta_epoch": "2025-12-10T22:57:37.610784",
        "meta_mean_motion": 14.04716581,
        "meta_eccentricity": 0.0162103,
        "meta_inclination": 74.0823,
        "meta_ra_of_asc_node": 204.9451,
        "meta_arg_of_pericenter": 243.6176,
        "meta_mean_anomaly": 114.8243,
        "meta_ephemeris_type": 0,
        "meta_classification_type": "U",
        "meta_norad_cat_id": 47073,
        "meta_element_set_no": 999,
        "meta_rev_at_epoch": 60336,
        "meta_bstar": 0.00063847,
        "meta_mean_motion_dot": 1.125e-05,
        "meta_mean_motion_ddot": 0,
        "tle_line1": "1 47073U 93036BYD 25344.95668531  .00001125  00000+0  63847-3 0  9992",
        "tle_line2": "2 47073  74.0823 204.9451 0162103 243.6176 114.8243 14.04716581603362"
      },
      "geometry": {
        "type": "Point",
        "coordinates": [
          135.48006038683246,
          -72.44293086777861
        ]
      }
    },
    {
      "type": "Feature",
      "properties": {
        "norad_id": 47074,
        "name": "COSMOS 2251 DEB",
        "group": "cosmos-2251-debris",
        "lat": -12.36329788247426,
        "lon": 130.24902162296124,
        "alt_km": 856.0038853567266,
        "timestamp": "2025-12-13T20:38:51.406699+00:00",
        "meta_object_name": "COSMOS 2251 DEB",
        "meta_object_id": "1993-036BYE",
        "meta_epoch": "2025-12-08T16:49:34.505184",
        "meta_mean_motion": 14.3557053,
        "meta_eccentricity": 0.01448795,
        "meta_inclination": 74.0911,
        "meta_ra_of_asc_node": 316.0985,
        "meta_arg_of_pericenter": 343.8802,
        "meta_mean_anomaly": 196.5757,
        "meta_ephemeris_type": 0,
        "meta_classification_type": "U",
        "meta_norad_cat_id": 47074,
        "meta_element_set_no": 999,
        "meta_rev_at_epoch": 2624,
        "meta_bstar": 0.0031554894,
        "meta_mean_motion_dot": 0.00010228,
        "meta_mean_motion_ddot": 0,
        "tle_line1": "1 47074U 93036BYE 25342.70109381  .00010228  00000+0  31555-2 0  9991",
        "tle_line2": "2 47074  74.0911 316.0985 0144879 343.8802 196.5757 14.35570530 26246"
      },
      "geometry": {
        "type": "Point",
        "coordinates": [
          130.24902162296124,
          -12.36329788247426
        ]
      }
    },
    {
      "type": "Feature",
      "properties": {
        "norad_id": 47116,
        "name": "COSMOS 2251 DEB",
        "group": "cosmos-2251-debris",
        "lat": -62.50863536422468,
        "lon": -154.95988719537473,
        "alt_km": 567.4826994763125,
        "timestamp": "2025-12-13T20:38:51.406710+00:00",
        "meta_object_name": "COSMOS 2251 DEB",
        "meta_object_id": "1993-036BYJ",
        "meta_epoch": "2025-12-11T00:06:23.501088",
        "meta_mean_motion": 14.98044349,
        "meta_eccentricity": 0.00215318,
        "meta_inclination": 74.0231,
        "meta_ra_of_asc_node": 244.2359,
        "meta_arg_of_pericenter": 338.282,
        "meta_mean_anomaly": 38.4094,
        "meta_ephemeris_type": 0,
        "meta_classification_type": "U",
        "meta_norad_cat_id": 47116,
        "meta_element_set_no": 999,
        "meta_rev_at_epoch": 59485,
        "meta_bstar": 0.0031113289,
        "meta_mean_motion_dot": 0.0003712,
        "meta_mean_motion_ddot": 0,
        "tle_line1": "1 47116U 93036BYJ 25345.00443867  .00037120  00000+0  31113-2 0  9994",
        "tle_line2": "2 47116  74.0231 244.2359 0021531 338.2820  38.4094 14.98044349594850"
      },
      "geometry": {
        "type": "Point",
        "coordinates": [
          -154.95988719537473,
          -62.50863536422468
        ]
      }
    },
    {
      "type": "Feature",
      "properties": {
        "norad_id": 53093,
        "name": "COSMOS 2251 DEB",
        "group": "cosmos-2251-debris",
        "lat": -64.84618875446934,
        "lon": 156.9372870299645,
        "alt_km": 767.1184842502134,
        "timestamp": "2025-12-13T20:38:51.406720+00:00",
        "meta_object_name": "COSMOS 2251 DEB",
        "meta_object_id": "1993-036BYP",
        "meta_epoch": "2025-12-13T06:10:07.684896",
        "meta_mean_motion": 14.41887707,
        "meta_eccentricity": 0.00191787,
        "meta_inclination": 74.0364,
        "meta_ra_of_asc_node": 300.4962,
        "meta_arg_of_pericenter": 17.442,
        "meta_mean_anomaly": 342.7391,
        "meta_ephemeris_type": 0,
        "meta_classification_type": "U",
        "meta_norad_cat_id": 53093,
        "meta_element_set_no": 999,
        "meta_rev_at_epoch": 17733,
        "meta_bstar": 0.0015197821,
        "meta_mean_motion_dot": 4.962e-05,
        "meta_mean_motion_ddot": 0,
        "tle_line1": "1 53093U 93036BYP 25347.25703339  .00004962  00000+0  15198-2 0  9990",
        "tle_line2": "2 53093  74.0364 300.4962 0019178  17.4420 342.7391 14.41887707177331"
      },
      "geometry": {
        "type": "Point",
        "coordinates": [
          156.9372870299645,
          -64.84618875446934
        ]
      }
    }
  ]
}